CALSPHERE 1             
1 00900U 64063C   19118.93322214  .00000191  00000-0  19562-3 0  9991
2 00900  90.1519  21.8172 0024768 223.6283 268.7513 13.73220292713420
CALSPHERE 2             
1 00902U 64063E   19119.24816947  .00000014  00000-0  78259-5 0  9993
2 00902  90.1617  24.2985 0016648 228.0256 249.7158 13.52671611504410
LCS 1                   
1 01361U 65034C   19118.40962161  .00000012  00000-0  49858-3 0  9998
2 01361  32.1400 246.3700 0010500  27.6074 332.4980  9.89295815952075
TEMPSAT 1               
1 01512U 65065E   19118.86616309  .00000001  00000-0 -16335-4 0  9994
2 01512  89.8579 231.5507 0069827   8.5963 113.2072 13.33419629612706
CALSPHERE 4(A)          
1 01520U 65065H   19118.91973323  .00000054  00000-0  88505-4 0  9996
2 01520  90.0487 127.3255 0068044 253.5017 155.4682 13.35785317614722
OPS 5712 (P/L 160)      
1 02826U 67053A   19118.95344611  .00000498  00000-0  14842-3 0  9995
2 02826  69.9275  91.0300 0006482 185.6261 174.4800 14.48691038686750
OPS 5712 (P/L 153)      
1 02874U 67053H   19118.93816822 -.00000010  00000-0  31437-4 0  9995
2 02874  69.9730 298.5580 0008608 321.9571  38.0926 13.96328904642953
SURCAL 150B             
1 02909U 67053J   19119.17971160  .00000617  00000-0  13872-3 0  9992
2 02909  69.9463 132.8789 0006782 239.7679 120.2790 14.61227938696705
RIGIDSPHERE 2 (LCS 4)   
1 05398U 71067E   19119.22017883  .00000141  00000-0  43310-4 0  9999
2 05398  87.6220 338.7324 0062463 199.8351 160.0417 14.33787732500378
